ORBCOMM FM05 [-]        
1 25117U 97084F   24080.21944350  .00002939  00000+0  92413-3 0  9990
2 25117  45.0170  21.5693 0001692  71.6632 288.4402 14.42340403374988
ORBCOMM FM06 [+]        
1 25118U 97084G   24080.20690584  .00003249  00000+0  10168-2 0  9998
2 25118  45.0163  21.8085 0000865  63.3034  81.1982 14.42347508375899
ORBCOMM FM07 [-]        
1 25119U 97084H   24080.23692697  .00002942  00000+0  92611-3 0  9992
2 25119  45.0157  22.1738 0002612  64.4842 295.6278 14.42275189375898
ORBCOMM FM03 [-]        
1 25158U 98007B   24080.52633039  .00001668  00000+0  66177-3 0  9990
2 25158 107.9795 285.3708 0048629 319.0491  40.6999 14.31945367359041
ORBCOMM FM04 [+]        
1 25159U 98007C   24080.52412886  .00001641  00000+0  64989-3 0  9996
2 25159 107.9777 288.2702 0044193 316.7890  42.9784 14.32201183359215
ORBCOMM FM17 [-]        
1 25413U 98046A   24080.46056158  .00001667  00000+0  65533-3 0  9995
2 25413  44.9933 235.3185 0002346 126.7093 233.3969 14.32917153338048
ORBCOMM FM18 [-]        
1 25414U 98046B   24080.34309816  .00001907  00000+0  70405-3 0  9996
2 25414  44.9931 164.0367 0004719 181.7121 178.3711 14.35606746338966
ORBCOMM FM19 [+]        
1 25415U 98046C   24080.39677062  .00001962  00000+0  72510-3 0  9993
2 25415  44.9940 165.1262 0003450 182.0193 301.3801 14.35442695338933
